{"type": "FeatureCollection", "features": [ {"type": "Feature", "properties": {"norad_id": 34014, "name": "COSMOS 2251 DEB", "group": "cosmos-2251-debris", "lat": -13.813783478574685, "lon": -71.84665504045269, "alt_km": 654.575659508816, "timestamp": "2025-12-06T20:37:56.468860+00:00", "meta": {"OBJECT_NAME": "COSMOS 2251 DEB", "OBJECT_ID": "1993-036GZ", "EPOCH": "2025-12-06T14:58:30.112032", "MEAN_MOTION": 14.73017189, "ECCENTRICITY": 0.00368308, "INCLINATION": 74.0178, "RA_OF_ASC_NODE": 292.6538, "ARG_OF_PERICENTER": 73.9795, "MEAN_ANOMALY": 102.6943, "EPHEMERIS_TYPE": 0, "CLASSIFICATION_TYPE": "U", "NORAD_CAT_ID": 34014, "ELEMENT_SET_NO": 999, "REV_AT_EPOCH": 89213, "BSTAR": 0.0017524147, "MEAN_MOTION_DOT": 0.00011369, "MEAN_MOTION_DDOT": 0}, "tle": {"line1": "1 34014U 93036GZ  25340.62395963  .00011369  00000+0  17524-2 0  9990", "line2": "2 34014  74.0178 292.6538 0036830  73.9795 102.6943 14.73017189892135"}}, "geometry": {"type": "Point", "coordinates": [-71.84665504045269, -13.813783478574685]}}, {"type": "Feature", "properties": {"norad_id": 34015, "name": "COSMOS 2251 DEB", "group": "cosmos-2251-debris", "lat": 14.571356940425247, "lon": 174.92698691397752, "alt_km": 697.7527159564497, "timestamp": "2025-12-06T20:37:56.468870+00:00", "meta": {"OBJECT_NAME": "COSMOS 2251 DEB", "OBJECT_ID": "1993-036HA", "EPOCH": "2025-12-06T15:57:35.593920", "MEAN_MOTION": 14.60131736, "ECCENTRICITY": 0.00211556, "INCLINATION": 74.0228, "RA_OF_ASC_NODE": 171.0276, "ARG_OF_PERICENTER": 268.2531, "MEAN_ANOMALY": 163.8532, "EPHEMERIS_TYPE": 0, "CLASSIFICATION_TYPE": "U", "NORAD_CAT_ID": 34015, "ELEMENT_SET_NO": 999, "REV_AT_EPOCH": 88442, "BSTAR": 0.0021428472, "MEAN_MOTION_DOT": 0.00010331, "MEAN_MOTION_DDOT": 0}, "tle": {"line1": "1 34015U 93036HA  25340.66499530  .00010331  00000+0  21428-2 0  9996", "line2": "2 34015  74.0228 171.0276 0021155 268.2531 163.8532 14.60131736884429"}}, "geometry": {"type": "Point", "coordinates": [174.92698691397752, 14.571356940425247]}}, {"type": "Feature", "properties": {"norad_id": 34018, "name": "COSMOS 2251 DEB", "group": "cosmos-2251-debris", "lat": 26.46685373151305, "lon": 110.33934737207116, "alt_km": 1024.7329594052853, "timestamp": "2025-12-06T20:37:56.468881+00:00", "meta": {"OBJECT_NAME": "COSMOS 2251 DEB", "OBJECT_ID": "1993-036HD", "EPOCH": "2025-12-06T15:22:02.188704", "MEAN_MOTION": 13.81058146, "ECCENTRICITY": 0.02641159, "INCLINATION": 73.8771, "RA_OF_ASC_NODE": 102.4314, "ARG_OF_PERICENTER": 139.4681, "MEAN_ANOMALY": 240.8135, "EPHEMERIS_TYPE": 0, "CLASSIFICATION_TYPE": "U", "NORAD_CAT_ID": 34018, "ELEMENT_SET_NO": 999, "REV_AT_EPOCH": 84573, "BSTAR": 0.0010393814, "MEAN_MOTION_DOT": 1.409e-05, "MEAN_MOTION_DDOT": 0}, "tle": {"line1": "1 34018U 93036HD  25340.64030311  .00001409  00000+0  10394-2 0  9991", "line2": "2 34018  73.8771 102.4314 0264115 139.4681 240.8135 13.81058146845734"}}, "geometry": {"type": "Point", "coordinates": [110.33934737207116, 26.46685373151305]}}, {"type": "Feature", "properties": {"norad_id": 34019, "name": "COSMOS 2251 DEB", "group": "cosmos-2251-debris", "lat": 58.48344109549878, "lon": -146.4350951860377, "alt_km": 799.0655457438324, "timestamp": "2025-12-06T20:37:56.468891+00:00", "meta": {"OBJECT_NAME": "COSMOS 2251 DEB", "OBJECT_ID": "1993-036HE", "EPOCH": "2025-12-06T15:46:16.043232", "MEAN_MOTION": 14.33890863, "ECCENTRICITY": 0.00627365, "INCLINATION": 73.9553, "RA_OF_ASC_NODE": 61.9262, "ARG_OF_PERICENTER": 244.0371, "MEAN_ANOMALY": 268.8327, "EPHEMERIS_TYPE": 0, "CLASSIFICATION_TYPE": "U", "NORAD_CAT_ID": 34019, "ELEMENT_SET_NO": 999, "REV_AT_EPOCH": 87433, "BSTAR": 0.0017130893, "MEAN_MOTION_DOT": 4.855e-05, "MEAN_MOTION_DDOT": 0}, "tle": {"line1": "1 34019U 93036HE  25340.65713013  .00004855  00000+0  17131-2 0  9994", "line2": "2 34019  73.9553  61.9262 0062736 244.0371 268.8327 14.33890863874338"}}, "geometry": {"type": "Point", "coordinates": [-146.4350951860377, 58.48344109549878]}}, {"type": "Feature", "properties": {"norad_id": 34021, "name": "COSMOS 2251 DEB", "group": "cosmos-2251-debris", "lat": -55.03464806836344, "lon": -14.96724892560219, "alt_km": 722.5130727387905, "timestamp": "2025-12-06T20:37:56.468902+00:00", "meta": {"OBJECT_NAME": "COSMOS 2251 DEB", "OBJECT_ID": "1993-036HG", "EPOCH": "2025-12-06T15:00:56.750976", "MEAN_MOTION": 14.49912692, "ECCENTRICITY": 0.00208211, "INCLINATION": 74.0354, "RA_OF_ASC_NODE": 141.3077, "ARG_OF_PERICENTER": 285.9476, "MEAN_ANOMALY": 171.5988, "EPHEMERIS_TYPE": 0, "CLASSIFICATION_TYPE": "U", "NORAD_CAT_ID": 34021, "ELEMENT_SET_NO": 999, "REV_AT_EPOCH": 88541, "BSTAR": 0.00087764449, "MEAN_MOTION_DOT": 3.376e-05, "MEAN_MOTION_DDOT": 0}, "tle": {"line1": "1 34021U 93036HG  25340.62565684  .00003376  00000+0  87764-3 0  9990", "line2": "2 34021  74.0354 141.3077 0020821 285.9476 171.5988 14.49912692885414"}}, "geometry": {"type": "Point", "coordinates": [-14.96724892560219, -55.03464806836344]}}, {"type": "Feature", "properties": {"norad_id": 34022, "name": "COSMOS 2251 DEB", "group": "cosmos-2251-debris", "lat": -67.06534775971238, "lon": -120.87956042607983, "alt_km": 761.0305070215882, "timestamp": "2025-12-06T20:37:56.468912+00:00", "meta": {"OBJECT_NAME": "COSMOS 2251 DEB", "OBJECT_ID": "1993-036HH", "EPOCH": "2025-12-06T06:16:48.256896", "MEAN_MOTION": 14.38947764, "ECCENTRICITY": 0.00224754, "INCLINATION": 74.0539, "RA_OF_ASC_NODE": 282.7312, "ARG_OF_PERICENTER": 348.8651, "MEAN_ANOMALY": 81.5115, "EPHEMERIS_TYPE": 0, "CLASSIFICATION_TYPE": "U", "NORAD_CAT_ID": 34022, "ELEMENT_SET_NO": 999, "REV_AT_EPOCH": 88102, "BSTAR": 0.00050410646, "MEAN_MOTION_DOT": 1.533e-05, "MEAN_MOTION_DDOT": 0}, "tle": {"line1": "1 34022U 93036HH  25340.26166964  .00001533  00000+0  50411-3 0  9991", "line2": "2 34022  74.0539 282.7312 0022475 348.8651  81.5115 14.38947764881024"}}, "geometry": {"type": "Point", "coordinates": [-120.87956042607983, -67.06534775971238]}}, {"type": "Feature", "properties": {"norad_id": 34023, "name": "COSMOS 2251 DEB", "group": "cosmos-2251-debris", "lat": 6.978780033314804, "lon": 80.61523899591658, "alt_km": 771.2728265365258, "timestamp": "2025-12-06T20:37:56.468923+00:00", "meta": {"OBJECT_NAME": "COSMOS 2251 DEB", "OBJECT_ID": "1993-036HJ", "EPOCH": "2025-12-06T05:31:43.067712", "MEAN_MOTION": 14.40537648, "ECCENTRICITY": 0.00181919, "INCLINATION": 74.0249, "RA_OF_ASC_NODE": 263.7889, "ARG_OF_PERICENTER": 0.4491, "MEAN_ANOMALY": 149.8451, "EPHEMERIS_TYPE": 0, "CLASSIFICATION_TYPE": "U", "NORAD_CAT_ID": 34023, "ELEMENT_SET_NO": 999, "REV_AT_EPOCH": 88120, "BSTAR": 0.00064381072, "MEAN_MOTION_DOT": 2.028e-05, "MEAN_MOTION_DDOT": 0}, "tle": {"line1": "1 34023U 93036HJ  25340.23035958  .00002028  00000+0  64381-3 0  9998", "line2": "2 34023  74.0249 263.7889 0018191   0.4491 149.8451 14.40537648881204"}}, "geometry": {"type": "Point", "coordinates": [80.61523899591658, 6.978780033314804]}}, {"type": "Feature", "properties": {"norad_id": 34024, "name": "COSMOS 2251 DEB", "group": "cosmos-2251-debris", "lat": -63.88358049527123, "lon": -68.92491303873891, "alt_km": 780.0953331564288, "timestamp": "2025-12-06T20:37:56.468934+00:00", "meta": {"OBJECT_NAME": "COSMOS 2251 DEB", "OBJECT_ID": "1993-036HK", "EPOCH": "2025-12-06T09:56:33.945792", "MEAN_MOTION": 14.35385319, "ECCENTRICITY": 0.00207479, "INCLINATION": 74.0462, "RA_OF_ASC_NODE": 327.5877, "ARG_OF_PERICENTER": 19.9494, "MEAN_ANOMALY": 130.6524, "EPHEMERIS_TYPE": 0, "CLASSIFICATION_TYPE": "U", "NORAD_CAT_ID": 34024, "ELEMENT_SET_NO": 999, "REV_AT_EPOCH": 87933, "BSTAR": 0.00037107612, "MEAN_MOTION_DOT": 1.042e-05, "MEAN_MOTION_DDOT": 0}, "tle": {"line1": "1 34024U 93036HK  25340.41428178  .00001042  00000+0  37108-3 0  9991", "line2": "2 34024  74.0462 327.5877 0020747  19.9494 130.6524 14.35385319879336"}}, "geometry": {"type": "Point", "coordinates": [-68.92491303873891, -63.88358049527123]}}, {"type": "Feature", "properties": {"norad_id": 34026, "name": "COSMOS 2251 DEB", "group": "cosmos-2251-debris", "lat": -38.22016147925875, "lon": -179.67344095122888, "alt_km": 763.0664532966157, "timestamp": "2025-12-06T20:37:56.468944+00:00", "meta": {"OBJECT_NAME": "COSMOS 2251 DEB", "OBJECT_ID": "1993-036HM", "EPOCH": "2025-12-06T11:32:23.374176", "MEAN_MOTION": 13.65292477, "ECCENTRICITY": 0.03510373, "INCLINATION": 73.7677, "RA_OF_ASC_NODE": 347.694, "ARG_OF_PERICENTER": 218.6326, "MEAN_ANOMALY": 299.8471, "EPHEMERIS_TYPE": 0, "CLASSIFICATION_TYPE": "U", "NORAD_CAT_ID": 34026, "ELEMENT_SET_NO": 999, "REV_AT_EPOCH": 83446, "BSTAR": 0.001710448, "MEAN_MOTION_DOT": 2.094e-05, "MEAN_MOTION_DDOT": 0}, "tle": {"line1": "1 34026U 93036HM  25340.48082609  .00002094  00000+0  17104-2 0  9996", "line2": "2 34026  73.7677 347.6940 0351037 218.6326 299.8471 13.65292477834465"}}, "geometry": {"type": "Point", "coordinates": [-179.67344095122888, -38.22016147925875]}}, {"type": "Feature", "properties": {"norad_id": 34028, "name": "COSMOS 2251 DEB", "group": "cosmos-2251-debris", "lat": 72.28203403328689, "lon": 111.45167583116428, "alt_km": 841.5728552052615, "timestamp": "2025-12-06T20:37:56.468956+00:00", "meta": {"OBJECT_NAME": "COSMOS 2251 DEB", "OBJECT_ID": "1993-036HP", "EPOCH": "2025-12-06T11:25:28.058016", "MEAN_MOTION": 13.20617755, "ECCENTRICITY": 0.05439185, "INCLINATION": 73.8836, "RA_OF_ASC_NODE": 356.8538, "ARG_OF_PERICENTER": 135.7727, "MEAN_ANOMALY": 301.9831, "EPHEMERIS_TYPE": 0, "CLASSIFICATION_TYPE": "U", "NORAD_CAT_ID": 34028, "ELEMENT_SET_NO": 999, "REV_AT_EPOCH": 80925, "BSTAR": 0.00024082485, "MEAN_MOTION_DOT": 1.96e-06, "MEAN_MOTION_DDOT": 0}, "tle": {"line1": "1 34028U 93036HP  25340.47601919  .00000196  00000+0  24082-3 0  9993", "line2": "2 34028  73.8836 356.8538 0543918 135.7727 301.9831 13.20617755809250"}}, "geometry": {"type": "Point", "coordinates": [111.45167583116428, 72.28203403328689]}}]}